NORAD_CAT_ID,OBJECT_NAME,OBJECT_TYPE,EPOCH,MEAN_MOTION,ECCENTRICITY,INCLINATION,RA_OF_ASC_NODE,ARG_OF_PERICENTER,MEAN_ANOMALY,BSTAR,MEAN_MOTION_DOT,MEAN_MOTION_DDOT,TLE_LINE0,TLE_LINE1,TLE_LINE2,SEMIMAJOR_AXIS,PERIOD,APOGEE,PERIGEE,DECAYED
49163.0,STARLINK-3088,PAYLOAD,2022-02-06 14:00:01,15.4620012,0.0003403,69.9998,78.7898,279.0106,8.8651,-0.014366,-0.00652052,0.0,0 STARLINK-3088,1 49163U 21082AK  22037.58335648 -.00652052  00000-0 -14366-1 0  9995,2 49163  69.9998  78.7898 0003403 279.0106   8.8651 15.46200120 24080,6805.991,93.132,430.172,425.54,0.0
49163.0,STARLINK-3088,PAYLOAD,2022-02-06 22:00:00,15.45732627,0.0003535,69.9999,77.88600000000002,280.1112,62.3071,-0.01462,-0.00652928,0.0,0 STARLINK-3088,1 49163U 21082AK  22037.91667824 -.00652928  00000-0 -14620-1 0  9991,2 49163  69.9999  77.8860 0003535 280.1112  62.3071 15.45732627  3670,6807.363,93.16,431.635,426.822,0.0
49163.0,STARLINK-3088,PAYLOAD,2022-02-07 14:00:01,15.44797082,0.00036,69.9998,76.08,284.2862,165.6634,-0.015046,-0.00650917,0.0,0 STARLINK-3088,1 49163U 21082AK  22038.58334491 -.00650917  00000-0 -15046-1 0  9995,2 49163  69.9998  76.0800 0003600 284.2862 165.6634 15.44797082 24236,6810.111,93.216,434.42800000000005,429.525,0.0
49163.0,STARLINK-3088,PAYLOAD,2022-02-07 22:00:00,15.44329459,0.0003451,69.9998,75.1781,280.9796,221.8947,-0.015284,-0.0065073,0.0,0 STARLINK-3088,1 49163U 21082AK  22038.91667824 -.00650730  00000-0 -15284-1 0  9998,2 49163  69.9998  75.1781 0003451 280.9796 221.8947 15.44329459  3695,6811.486,93.244,435.702,431.0,0.0
49163.0,STARLINK-3088,PAYLOAD,2022-02-08 14:00:01,15.43395146,0.0003331,69.9998,73.3756,278.9125,328.1293,-0.015811,-0.00652011,0.0,0 STARLINK-3088,1 49163U 21082AK  22039.58334491 -.00652011  00000-0 -15811-1 0  9993,2 49163  69.9998  73.3756 0003331 278.9125 328.1293 15.43395146 24397,6814.235,93.301,438.37,433.83,0.0
49163.0,STARLINK-3088,PAYLOAD,2022-02-08 22:00:01,15.42927239,0.0003406,70.0001,72.4756,276.776,21.5732,-0.016053,-0.00651649,0.0,0 STARLINK-3088,1 49163U 21082AK  22039.91668981 -.00651649  00000-0 -16053-1 0  9999,2 49163  70.0001  72.4756 0003406 276.7760  21.5732 15.42927239  3683,6815.611999999999,93.329,439.799,435.156,0.0
49163.0,STARLINK-3088,PAYLOAD,2022-02-09 14:00:01,15.41993957,0.0003505,69.9997,70.6772,277.6048,121.4828,-0.016607,-0.00660946,0.0,0 STARLINK-3088,1 49163U 21082AK  22040.58334491 -.00660946  00000-0 -16607-1 0  9995,2 49163  69.9997  70.6772 0003505 277.6048 121.4828 15.41993957 24544,6818.361999999999,93.386,442.617,437.837,0.0
49163.0,STARLINK-3088,PAYLOAD,2022-02-10 14:00:01,15.40590851,0.0003389,69.9997,67.9845,284.0198,262.1334,-0.0174,-0.00660846,0.0,0 STARLINK-3088,1 49163U 21082AK  22041.58335648 -.00660846  00000-0 -17400-1 0  9992,2 49163  69.9997  67.9845 0003389 284.0198 262.1334 15.40590851 24698,6822.501,93.471,446.679,442.054,0.0
49163.0,STARLINK-3088,PAYLOAD,2022-02-10 22:00:00,15.40122079,0.0003346,69.9999,67.0881,280.286,313.6825,-0.017598,-0.00658247,0.0,0 STARLINK-3088,1 49163U 21082AK  22041.91667824 -.00658247  00000-0 -17598-1 0  9993,2 49163  69.9999  67.0881 0003346 280.2860 313.6825 15.40122079  3662,6823.886,93.499,448.034,443.467,0.0
49163.0,STARLINK-3088,PAYLOAD,2022-02-11 12:35:18,15.40471615,0.0002995,69.9967,65.4498,281.6777,78.4067,-0.0054281,-0.00214764,0.0,0 STARLINK-3088,1 49163U 21082AK  22042.52452504 -.00214764  00000-0 -54281-2 0  9991,2 49163  69.9967  65.4498 0002995 281.6777  78.4067 15.40471615 24833,6822.853,93.478,446.762,442.675,0.0
49163.0,STARLINK-3088,PAYLOAD,2022-02-11 14:00:01,15.39189328,0.0003453,69.9999,65.2974,277.6647,50.379,-0.018251,-0.0066176,0.0,0 STARLINK-3088,1 49163U 21082AK  22042.58334491 -.00661760  00000-0 -18251-1 0  9999,2 49163  69.9999  65.2974 0003453 277.6647  50.3790 15.39189328 24855,6826.642,93.556,450.865,446.15,0.0
49163.0,STARLINK-3088,PAYLOAD,2022-02-11 22:00:01,15.38718506,0.0003523999999999,69.9999,64.4031,278.0067,96.2998,-0.018396,-0.00657137,0.0,0 STARLINK-3088,1 49163U 21082AK  22042.91668981 -.00657137  00000-0 -18396-1 0  9993,2 49163  69.9999  64.4031 0003524 278.0067  96.2998 15.38718506  3671,6828.035,93.584,452.306,447.494,0.0
49163.0,STARLINK-3088,PAYLOAD,2022-02-12 14:00:01,15.3778684,0.0003448,69.9998,62.6161,279.8275,185.1257,-0.019104,-0.0066163,0.0,0 STARLINK-3088,1 49163U 21082AK  22043.58334491 -.00661630  00000-0 -19104-1 0  9994,2 49163  69.9998  62.6161 0003448 279.8275 185.1257 15.37786840  3681,6830.792,93.641,455.013,450.302,0.0
49163.0,STARLINK-3088,PAYLOAD,2022-02-12 22:00:00,15.37317993,0.0003423,69.9998,61.7238,282.2390000000001,227.2299,-0.019347,-0.00660022,0.0,0 STARLINK-3088,1 49163U 21082AK  22043.91667824 -.00660022  00000-0 -19347-1 0  9993,2 49163  69.9998  61.7238 0003423 282.2390 227.2299 15.37317993 25053,6832.181,93.67,456.385,451.707,0.0
49163.0,STARLINK-3088,PAYLOAD,2022-02-13 14:00:01,15.36385049,0.0003262,69.9996,59.9404,277.7044,319.1125,-0.020062,-0.00663753,0.0,0 STARLINK-3088,1 49163U 21082AK  22044.58334491 -.00663753  00000-0 -20062-1 0  9998,2 49163  69.9996  59.9404 0003262 277.7044 319.1125 15.36385049  3670,6834.946999999999,93.727,459.041,454.582,0.0
49163.0,STARLINK-3088,PAYLOAD,2022-02-14 06:00:00,15.35448008,0.0003611,70.0001,58.16,287.385,34.5386,-0.020552,-0.00660101,0.0,0 STARLINK-3088,1 49163U 21082AK  22045.25001157 -.00660101  00000-0 -20552-1 0  9991,2 49163  70.0001  58.1600 0003611 287.3850  34.5386 15.35448008 25269,6837.727,93.784,462.061,457.12300000000016,0.0
49163.0,STARLINK-3088,PAYLOAD,2022-02-14 14:00:01,15.34982133,0.0003452,69.9998,57.2705,277.8246,85.8103,-0.020933,-0.00662199,0.0,0 STARLINK-3088,1 49163U 21082AK  22045.58334491 -.00662199  00000-0 -20933-1 0  9999,2 49163  69.9998  57.2705 0003452 277.8246  85.8103 15.34982133  3660,6839.111,93.812,463.336,458.615,0.0
49163.0,STARLINK-3088,PAYLOAD,2022-02-14 22:00:00,15.34511281,0.0003507,70.0,56.3819,279.2054,125.5823,-0.021081,-0.00657298,0.0,0 STARLINK-3088,1 49163U 21082AK  22045.91667824 -.00657298  00000-0 -21081-1 0  9994,2 49163  70.0000  56.3819 0003507 279.2054 125.5823 15.34511281  3660,6840.51,93.841,464.773,459.976,0.0
49163.0,STARLINK-3088,PAYLOAD,2022-02-15 14:00:01,15.335791699999998,0.000339,69.9997,54.6063,280.3962,205.0111,-0.021859,-0.00661341,0.0,0 STARLINK-3088,1 49163U 21082AK  22046.58334491 -.00661341  00000-0 -21859-1 0  9996,2 49163  69.9997  54.6063 0003390 280.3962 205.0111 15.33579170 25461,6843.281,93.898,467.466,462.826,0.0
49163.0,STARLINK-3088,PAYLOAD,2022-02-15 22:00:01,15.33111968,0.0003425,69.9998,53.7196,285.0553,239.8853,-0.022234,-0.00662718,0.0,0 STARLINK-3088,1 49163U 21082AK  22046.91668981 -.00662718  00000-0 -22234-1 0  9994,2 49163  69.9998  53.7196 0003425 285.0553 239.8853 15.33111968  3669,6844.670999999999,93.927,468.881,464.192,0.0
49163.0,STARLINK-3088,PAYLOAD,2022-02-16 14:00:01,15.32178022,0.000324,69.9997,51.9477,277.0881,325.0454,-0.022954,-0.006642,0.0,0 STARLINK-3088,1 49163U 21082AK  22047.58334491 -.00664200  00000-0 -22954-1 0  9991,2 49163  69.9997  51.9477 0003240 277.0881 325.0454 15.32178022  3668,6847.4519999999975,93.984,471.536,467.099,0.0
49163.0,STARLINK-3088,PAYLOAD,2022-02-16 22:00:00,15.31707794,0.0003379,69.9998,51.0629,281.7132,358.2088,-0.023123,-0.00659654,0.0,0 STARLINK-3088,1 49163U 21082AK  22047.91667824 -.00659654  00000-0 -23123-1 0  9993,2 49163  69.9998  51.0629 0003379 281.7132 358.2088 15.31707794 25672,6848.854,94.013,473.033,468.405,0.0
49163.0,STARLINK-3088,PAYLOAD,2022-02-17 14:00:01,15.30774867,0.0003385,69.9998,49.2948,275.9172,77.8973,-0.023929,-0.00662812,0.0,0 STARLINK-3088,1 49163U 21082AK  22048.58334491 -.00662812  00000-0 -23929-1 0  9992,2 49163  69.9998  49.2948 0003385 275.9172  77.8973 15.30774867  3667,6851.636,94.07,475.82,471.182,0.0
49163.0,STARLINK-3088,PAYLOAD,2022-02-17 22:00:00,15.30303961,0.0003506,69.9998,48.4119,280.8555,109.0659,-0.024064,-0.00657292,0.0,0 STARLINK-3088,1 49163U 21082AK  22048.91667824 -.00657292  00000-0 -24064-1 0  9995,2 49163  69.9998  48.4119 0003506 280.8555 109.0659 15.30303961  3665,6853.042,94.099,477.309,472.504,0.0
49163.0,STARLINK-3088,PAYLOAD,2022-02-18 06:00:00,15.29838941,0.0003583,70.0001,47.5295,286.2532,139.2124,-0.024583,-0.00661552,0.0,0 STARLINK-3088,1 49163U 21082AK  22049.25001157 -.00661552  00000-0 -24583-1 0  9994,2 49163  70.0001  47.5295 0003583 286.2532 139.2124 15.29838941 25876,6854.43,94.128,478.751,473.839,0.0
49163.0,STARLINK-3088,PAYLOAD,2022-02-18 14:00:01,15.29371356,0.0003359,69.9997,46.6476,277.496,182.9538,-0.024906,-0.00660656,0.0,0 STARLINK-3088,1 49163U 21082AK  22049.58334491 -.00660656  00000-0 -24906-1 0  9993,2 49163  69.9997  46.6476 0003359 277.4960 182.9538 15.29371356  3676,6855.8269999999975,94.156,479.995,475.389,0.0
49163.0,STARLINK-3088,PAYLOAD,2022-02-18 22:00:00,15.28903844,0.0003452,69.9999,45.7666,284.9134,209.9602,-0.025288,-0.00661169,0.0,0 STARLINK-3088,1 49163U 21082AK  22049.91667824 -.00661169  00000-0 -25288-1 0  9993,2 49163  69.9999  45.7666 0003452 284.9134 209.9602 15.28903844  3651,6857.225,94.185,481.457,476.723,0.0
49163.0,STARLINK-3088,PAYLOAD,2022-02-19 14:00:01,15.27969345,0.0003202,69.9997,44.0059,278.0677,283.9714,-0.026048,-0.00661704,0.0,0 STARLINK-3088,1 49163U 21082AK  22050.58334491 -.00661704  00000-0 -26048-1 0  9999,2 49163  69.9997  44.0059 0003202 278.0677 283.9714 15.27969345 26081,6860.021,94.243,484.082,479.689,0.0
49163.0,STARLINK-3088,PAYLOAD,2022-02-19 22:00:00,15.27501838,0.0003348,69.9999,43.1267,284.202,310.579,-0.026429,-0.00661869,0.0,0 STARLINK-3088,1 49163U 21082AK  22050.91667824 -.00661869  00000-0 -26429-1 0  9990,2 49163  69.9999  43.1267 0003348 284.2020 310.5790 15.27501838  3632,6861.42,94.272,485.582,480.98800000000006,0.0
